{"type":"FeatureCollection","features":[{"type":"Feature","properties":{"name":"Uppsala län","iso_3166_2":"SE-C","source":"Natural Earth, Admin 1 – States, Provinces (1:10m)","sourceUrl":"https://www.naturalearthdata.com/","license":"Public domain"},"geometry":{"type":"MultiPolygon","coordinates":[[[[17.3766,60.6239],[17.3802,60.6244],[17.3958,60.6322],[17.4138,60.6379],[17.5471,60.6492],[17.575,60.6479],[17.5941,60.6394],[17.6084,60.6304],[17.6455,60.6186],[17.6589,60.6083],[17.6467,60.5996],[17.6111,60.5885],[17.6038,60.5841],[17.6069,60.5695],[17.6214,60.5471],[17.6248,60.5363],[17.6382,60.5154],[17.6706,60.5041],[17.7415,60.4984],[17.7415,60.5058],[17.7271,60.5347],[17.7622,60.5633],[17.8161,60.5853],[17.9186,60.6002],[17.9487,60.5992],[17.9749,60.5878],[17.9954,60.553],[17.9935,60.5409],[17.9876,60.5307],[17.9787,60.5233],[17.9675,60.5189],[17.9675,60.5121],[17.9934,60.5109],[18.0183,60.5023],[18.0642,60.478],[18.0984,60.4649],[18.1026,60.4589],[18.1087,60.4425],[18.112,60.437],[18.1433,60.4136],[18.1787,60.3989],[18.2622,60.3824],[18.2454,60.3769],[18.2199,60.3637],[18.207,60.355],[18.207,60.3476],[18.2212,60.3391],[18.2279,60.3338],[18.2349,60.3271],[18.2507,60.3341],[18.2775,60.3494],[18.2964,60.355],[18.3135,60.3569],[18.3263,60.3555],[18.3584,60.3476],[18.428,60.3488],[18.4478,60.3414],[18.4466,60.3384],[18.4458,60.3302],[18.446,60.3207],[18.4478,60.3135],[18.452,60.3102],[18.4745,60.2998],[18.4745,60.293],[18.4621,60.2912],[18.4499,60.2924],[18.438,60.2921],[18.4268,60.2862],[18.5654,60.2593],[18.6048,60.2383],[18.5637,60.2276],[18.4006,60.2596],[18.3692,60.279],[18.3169,60.321],[18.3309,60.2857],[18.3699,60.2586],[18.4151,60.2351],[18.4478,60.2111],[18.4307,60.2104],[18.4172,60.2158],[18.3926,60.2322],[18.3997,60.2078],[18.4199,60.1935],[18.4683,60.1763],[18.4929,60.1608],[18.5061,60.1557],[18.523,60.1558],[18.5349,60.1589],[18.5441,60.1643],[18.548,60.1723],[18.5485,60.1741],[18.5481,60.1439],[18.5501,60.1291],[18.5545,60.1214],[18.504,60.0779],[18.473,60.057],[18.461,60.0429],[18.4596,60.0333],[18.4666,60.0263],[18.476,60.0212],[18.4846,60.0176],[18.4913,60.0141],[18.4939,60.0108],[18.4891,60.007],[18.4509,59.9953],[18.4373,59.9887],[18.4269,59.98],[18.421,59.9645],[18.4215,59.9223],[18.4115,59.9009],[18.39,59.882],[18.3434,59.8649],[18.2744,59.8481],[18.2109,59.8395],[18.1778,59.8288],[18.1535,59.8128],[18.1269,59.779],[18.1105,59.7622],[18.0899,59.7526],[18.009,59.7516],[17.8706,59.7088],[17.8103,59.6997],[17.7814,59.6919],[17.7688,59.6933],[17.7356,59.7051],[17.7161,59.7087],[17.6813,59.7102],[17.6729,59.7094],[17.6656,59.7048],[17.6537,59.6935],[17.6535,59.6933],[17.6337,59.6811],[17.6166,59.6745],[17.5956,59.6706],[17.5873,59.6695],[17.5817,59.6662],[17.5795,59.6601],[17.5778,59.65],[17.5777,59.6498],[17.5668,59.6381],[17.5624,59.6225],[17.564,59.6086],[17.5696,59.5988],[17.5771,59.5915],[17.5938,59.5796],[17.5949,59.572],[17.5904,59.5628],[17.542,59.5179],[17.5353,59.507],[17.5341,59.4995],[17.5341,59.4994],[17.5323,59.4877],[17.5323,59.4736],[17.5289,59.462],[17.5218,59.4536],[17.483,59.4368],[17.4756,59.43],[17.4635,59.4076],[17.4445,59.3853],[17.4172,59.4152],[17.3947,59.4275],[17.3604,59.4419],[17.2984,59.4583],[17.2678,59.4739],[17.2499,59.4902],[17.2462,59.4971],[17.2448,59.5003],[17.2401,59.5026],[17.2006,59.5178],[17.17,59.525],[17.1481,59.5272],[17.0711,59.5213],[16.9664,59.5321],[16.9572,59.547],[16.9571,59.5472],[16.9472,59.5632],[16.9168,59.641],[16.9003,59.669],[16.7968,59.7849],[16.7875,59.7984],[16.7914,59.8069],[16.8385,59.8234],[16.8524,59.8339],[16.8587,59.8462],[16.8558,59.8695],[16.8561,59.8789],[16.8589,59.8844],[16.867,59.8848],[16.8823,59.8839],[16.951,59.8706],[17.0072,59.8651],[17.0138,59.8615],[17.0271,59.8478],[17.0375,59.8416],[17.0504,59.8391],[17.0692,59.8412],[17.0873,59.8476],[17.1287,59.8673],[17.1806,59.8847],[17.1947,59.8975],[17.2045,59.9147],[17.2096,59.9389],[17.211,59.9563],[17.2077,59.9675],[17.199,59.9729],[17.1832,59.9774],[17.1709,59.9826],[17.1641,59.9912],[17.1656,59.997],[17.168,60.0007],[17.1798,60.01],[17.2108,60.0421],[17.2206,60.0483],[17.2317,60.0503],[17.2578,60.0483],[17.2715,60.0504],[17.2884,60.0589],[17.3077,60.0774],[17.3857,60.2013],[17.3941,60.2246],[17.3889,60.2401],[17.3694,60.2509],[17.2262,60.3096],[17.2175,60.3847],[17.2238,60.404],[17.2459,60.4285],[17.2637,60.4393],[17.2809,60.4461],[17.3159,60.486],[17.3766,60.6239]]],[[[18.5501,60.3271],[18.5547,60.3248],[18.5615,60.3233],[18.5679,60.3213],[18.5706,60.3172],[18.5669,60.3074],[18.5581,60.3072],[18.5143,60.321],[18.4588,60.3538],[18.4022,60.3698],[18.3892,60.391],[18.3849,60.4179],[18.3889,60.4675],[18.388,60.4789],[18.3752,60.5004],[18.3788,60.5078],[18.3901,60.5101],[18.4063,60.5058],[18.411,60.5007],[18.4224,60.4909],[18.4268,60.4854],[18.4268,60.4818],[18.4248,60.4768],[18.424,60.4711],[18.4268,60.4649],[18.4392,60.4556],[18.4661,60.4427],[18.4745,60.4308],[18.4579,60.4321],[18.4346,60.4421],[18.4199,60.4438],[18.4297,60.4299],[18.4745,60.3824],[18.4846,60.3664],[18.4943,60.3566],[18.5078,60.356],[18.5298,60.3681],[18.5324,60.3539],[18.5368,60.3444],[18.5501,60.3271]]]]}}]}